{
    "links": {
        "self": "http://www.neowsapp.com/rest/v1/neo/54016463?api_key=iIulBulltgU6a56xZRHN4H3l9WmuAYTsLGpBGhQ2"
    },
    "id": "54016463",
    "neo_reference_id": "54016463",
    "name": "(2020 GD1)",
    "designation": "2020 GD1",
    "nasa_jpl_url": "http://ssd.jpl.nasa.gov/sbdb.cgi?sstr=54016463",
    "absolute_magnitude_h": 23.004,
    "estimated_diameter": {
        "kilometers": {
            "estimated_diameter_min": 0.0666430671,
            "estimated_diameter_max": 0.1490184284
        },
        "meters": {
            "estimated_diameter_min": 66.6430671466,
            "estimated_diameter_max": 149.0184283688
        },
        "miles": {
            "estimated_diameter_min": 0.0414100693,
            "estimated_diameter_max": 0.0925957299
        },
        "feet": {
            "estimated_diameter_min": 218.6452404172,
            "estimated_diameter_max": 488.9056205296
        }
    },
    "is_potentially_hazardous_asteroid": false,
    "close_approach_data": [
        {
            "close_approach_date": "1926-10-15",
            "close_approach_date_full": "1926-Oct-15 16:05",
            "epoch_date_close_approach": -1363679700000,
            "relative_velocity": {
                "kilometers_per_second": "21.2673232777",
                "kilometers_per_hour": "76562.3637996538",
                "miles_per_hour": "47572.875439846"
            },
            "miss_distance": {
                "astronomical": "0.1488935756",
                "lunar": "57.9196009084",
                "kilometers": "22274161.766443972",
                "miles": "13840522.3281199336"
            },
            "orbiting_body": "Earth"
        },
        {
            "close_approach_date": "2013-04-03",
            "close_approach_date_full": "2013-Apr-03 18:13",
            "epoch_date_close_approach": 1365012780000,
            "relative_velocity": {
                "kilometers_per_second": "18.9768437592",
                "kilometers_per_hour": "68316.6375330174",
                "miles_per_hour": "42449.3018048907"
            },
            "miss_distance": {
                "astronomical": "0.1087451294",
                "lunar": "42.3018553366",
                "kilometers": "16268039.731114378",
                "miles": "10108491.1519512964"
            },
            "orbiting_body": "Earth"
        },
        {
            "close_approach_date": "2020-03-30",
            "close_approach_date_full": "2020-Mar-30 15:14",
            "epoch_date_close_approach": 1585581240000,
            "relative_velocity": {
                "kilometers_per_second": "16.9958016503",
                "kilometers_per_hour": "61184.8859410199",
                "miles_per_hour": "38017.9087115187"
            },
            "miss_distance": {
                "astronomical": "0.0855245636",
                "lunar": "33.2690552404",
                "kilometers": "12794292.547239532",
                "miles": "7950004.7422362616"
            },
            "orbiting_body": "Earth"
        },
        {
            "close_approach_date": "2027-03-28",
            "close_approach_date_full": "2027-Mar-28 08:09",
            "epoch_date_close_approach": 1806221340000,
            "relative_velocity": {
                "kilometers_per_second": "15.5962644254",
                "kilometers_per_hour": "56146.5519313547",
                "miles_per_hour": "34887.2838931242"
            },
            "miss_distance": {
                "astronomical": "0.0985886829",
                "lunar": "38.3509976481",
                "kilometers": "14748656.967945423",
                "miles": "9164390.4814479174"
            },
            "orbiting_body": "Earth"
        },
        {
            "close_approach_date": "2138-10-27",
            "close_approach_date_full": "2138-Oct-27 15:40",
            "epoch_date_close_approach": 5327480400000,
            "relative_velocity": {
                "kilometers_per_second": "16.7711660685",
                "kilometers_per_hour": "60376.1978467706",
                "miles_per_hour": "37515.4213787337"
            },
            "miss_distance": {
                "astronomical": "0.0199681393",
                "lunar": "7.7676061877",
                "kilometers": "2987191.107143291",
                "miles": "1856154.4829517758"
            },
            "orbiting_body": "Earth"
        }
    ],
    "orbital_data": {
        "orbit_id": "8",
        "orbit_determination_date": "2020-04-24 06:55:31",
        "first_observation_date": "2020-04-02",
        "last_observation_date": "2020-04-23",
        "data_arc_in_days": 21,
        "observations_used": 80,
        "orbit_uncertainty": "7",
        "minimum_orbit_intersection": ".0203827",
        "jupiter_tisserand_invariant": "3.872",
        "epoch_osculation": "2459000.5",
        "eccentricity": ".6046395415535352",
        "semi_major_axis": "1.757214931514632",
        "inclination": "10.24144027799862",
        "ascending_node_longitude": "37.39400660280867",
        "orbital_period": "850.8162073328821",
        "perihelion_distance": ".6947333009125982",
        "perihelion_argument": "71.37375570201263",
        "aphelion_distance": "2.819696562116666",
        "perihelion_time": "2458889.253026745611",
        "mean_anomaly": "47.07116534265899",
        "mean_motion": ".4231231103701224",
        "equinox": "J2000",
        "orbit_class": {
            "orbit_class_type": "APO",
            "orbit_class_description": "Near-Earth asteroid orbits which cross the Earth’s orbit similar to that of 1862 Apollo",
            "orbit_class_range": "a (semi-major axis) > 1.0 AU; q (perihelion) < 1.017 AU"
        }
    },
    "is_sentry_object": false
}